[{"OBJECT_NAME":"HAWK-7C","OBJECT_ID":"2023-054Y","EPOCH":"2026-03-09T16:32:02.440032","MEAN_MOTION":15.26207266,"ECCENTRICITY":0.00036507,"INCLINATION":97.2829,"RA_OF_ASC_NODE":317.5849,"ARG_OF_PERICENTER":52.209,"MEAN_ANOMALY":307.9479,"EPHEMERIS_TYPE":0,"CLASSIFICATION_TYPE":"U","NORAD_CAT_ID":56200,"ELEMENT_SET_NO":999,"REV_AT_EPOCH":16184,"BSTAR":0.0003098019,"MEAN_MOTION_DOT":7.947e-5,"MEAN_MOTION_DDOT":0},{"OBJECT_NAME":"STARLINK-30519","OBJECT_ID":"2023-151X","EPOCH":"2026-03-09T22:00:01.999584","MEAN_MOTION":15.26728117,"ECCENTRICITY":0.00020054,"INCLINATION":43.0023,"RA_OF_ASC_NODE":349.4808,"ARG_OF_PERICENTER":274.1728,"MEAN_ANOMALY":210.6562,"EPHEMERIS_TYPE":0,"CLASSIFICATION_TYPE":"U","NORAD_CAT_ID":57985,"ELEMENT_SET_NO":999,"REV_AT_EPOCH":578,"BSTAR":0.00017509394,"MEAN_MOTION_DOT":4.438e-5,"MEAN_MOTION_DDOT":0}]
